OBJECT_NAME,OBJECT_ID,EPOCH,MEAN_MOTION,ECCENTRICITY,INCLINATION,RA_OF_ASC_NODE,ARG_OF_PERICENTER,MEAN_ANOMALY,EPHEMERIS_TYPE,CLASSIFICATION_TYPE,NORAD_CAT_ID,ELEMENT_SET_NO,REV_AT_EPOCH,BSTAR,MEAN_MOTION_DOT,MEAN_MOTION_DDOT
KAZSTSAT,2018-099AB,2026-07-09T18:42:55.018080,14.99946574,.0007728,97.4316,221.6883,1.8232,358.3019,0,U,43783,999,41469,.95747E-4,.1133E-4,0
SAUDISAT 5A,2018-102A,2026-07-09T21:16:30.549216,15.28286070,.0010849,97.3058,252.0313,60.3433,299.8886,0,U,43831,999,41914,.14023E-3,.3796E-4,0
SAUDISAT 5B,2018-102C,2026-07-09T20:04:00.600384,15.28530434,.001161,97.3167,255.0928,61.9774,298.2639,0,U,43833,999,41925,.13207E-3,.3598E-4,0
GAOFEN-10R,2019-066A,2026-07-09T21:23:22.761888,14.83050095,.0007087,98.0512,144.6367,66.8056,293.3903,0,U,44622,999,36574,.9648E-4,.73E-5,0
CARTOSAT-3,2019-081A,2026-07-09T21:07:28.795296,15.19300067,.0013475,97.4296,252.3809,77.7914,282.4829,0,U,44804,999,36691,.12436E-3,.2562E-4,0
GAOFEN-12 01,2019-082A,2026-07-09T20:33:39.063168,14.80476937,.0001252,97.8106,196.6382,52.2012,307.9314,0,U,44819,999,35744,.37403E-4,.236E-5,0
CSG-1,2019-092A,2026-07-09T19:15:28.668096,14.82148516,.0001502,97.8894,14.0779,90.6570,269.4815,0,U,44873,999,35482,.36977E-4,.242E-5,0
NEMO-HD,2020-061F,2026-07-09T20:46:40.285920,15.45061722,.0001133,97.1911,252.5946,80.9545,279.1832,0,U,46277,999,32548,.1782E-3,.8332E-4,0
SENTINEL-6A,2020-086A,2026-07-09T02:28:10.320672,12.80930079,.00078178,66.0415,89.5347,270.0066,90.0053,0,U,46984,999,26313,-.41416633E-4,-.71E-6,0
CAS500-1,2021-022A,2026-07-09T20:07:11.254080,15.20145076,.0004609,97.3875,85.6303,186.9569,173.1603,0,U,47932,999,29420,.19486E-3,.4148E-4,0
GAOFEN-12 02,2021-026A,2026-07-09T20:53:05.382816,14.80313539,.0005491,97.9930,188.9589,146.4857,213.6703,0,U,48079,999,28511,.35404E-4,.217E-5,0
PLEIADES NEO 3,2021-034A,2026-07-09T21:02:11.854176,14.81673152,.0001321,97.8936,265.3166,93.2029,266.9334,0,U,48268,999,28101,.9422E-5,.22E-6,0
PLEIADES NEO 4,2021-073E,2026-07-09T20:13:33.491136,14.81673701,.0001357,97.8934,265.2798,92.7337,267.4031,0,U,49070,999,26472,.14774E-3,.1111E-4,0
LANDSAT 9,2021-088A,2026-07-08T18:12:45.328608,14.57112192,.00011723,98.2272,259.6744,89.8666,270.2667,0,U,49260,999,25414,.6032887E-4,.226E-5,0
CSG-2,2022-008A,2026-07-09T20:04:01.142112,14.82147479,.0001523,97.8898,14.1061,84.9757,275.1630,0,U,51444,999,23994,.93116E-7,-.51E-6,0
GAOFEN-12 03,2022-069A,2026-07-09T20:04:27.276384,14.80069598,.0002486,97.8250,78.1328,78.5087,281.6405,0,U,52912,999,21796,.60828E-4,.41E-5,0
SWOT,2022-173A,2026-07-09T18:46:17.929344,14.00171984,.0000296,77.6105,4.8057,75.0538,285.0646,0,U,54754,999,18231,.12431E-4,.16E-6,0
GAOFEN-12 04,2023-123A,2026-07-09T20:31:15.989952,14.79769273,.0003754,97.9106,108.5357,61.4086,298.7503,0,U,57654,999,15598,.9E-4,.625E-5,0
PARS 1,2024-039Q,2026-07-09T20:08:48.766848,15.46210499,.0010453,97.4831,172.4814,44.2935,315.9148,0,U,59065,999,13214,.18482E-3,.9004E-4,0
RESURS-P 4,2024-061A,2026-07-09T20:38:05.711712,15.32260625,.0003223,97.2754,138.3661,97.7805,262.3803,0,U,59371,999,12723,.68378E-4,.2054E-4,0
LEGION 1,2024-081A,2026-07-09T17:22:05.784384,15.16821177,.0007747,97.5012,268.3414,292.5857,67.4556,0,U,59625,999,12095,.11505E-3,.2195E-4,0
LEGION 2,2024-081B,2026-07-09T18:05:44.303136,15.16800248,.0009935,97.5011,268.4683,254.8850,105.1284,0,U,59626,999,12096,.13474E-3,.2582E-4,0
ALOS-4 (DAICHI-4),2024-123A,2026-07-09T19:34:22.353600,14.79472587,.0001615,97.9220,287.6667,97.9415,262.1980,0,U,60182,999,10922,.13786E-3,.978E-5,0
LEGION 3,2024-146A,2026-07-09T16:02:20.147136,15.15633421,.0008682,45.0016,270.0128,305.2721,54.7345,0,U,60452,999,10543,.1164E-3,.1987E-4,0
LEGION 4,2024-146B,2026-07-09T17:37:04.759104,15.16214770,.0011446,45.0026,1.5280,77.6750,282.5409,0,U,60453,999,10429,.17076E-3,.3094E-4,0
SENTINEL-2C,2024-157A,2026-07-09T04:48:44.891712,14.30814617,.00009391,98.5685,264.6704,97.5512,262.5777,0,U,60989,999,9613,.3661567E-4,.52E-6,0
IONOSFERA-M 1,2024-199A,2026-07-09T18:26:28.254048,14.22758388,.0002212,98.7145,63.6992,80.0942,280.0485,0,U,61735,999,13091,.30622E-4,.25E-6,0
IONOSFERA-M 2,2024-199B,2026-07-09T19:15:46.685088,14.22761760,.0000343,98.7143,63.6435,100.6896,259.4321,0,U,61736,999,13404,.32467E-4,.29E-6,0
PRSC-EO1,2025-012A,2026-07-09T20:56:14.237664,15.17740083,.0006482,97.4220,262.8880,165.5392,194.6028,0,U,62725,999,8163,.26187E-3,.5221E-4,0
BIOMASS,2025-090A,2026-07-09T11:14:10.065984,14.67533736,.0001279,98.0752,17.4555,92.9087,267.2264,0,U,63772,999,6395,.1314E-3,.697E-5,0
GOSAT-GW (IBUKI GW),2025-141A,2026-07-09T19:50:00.520224,14.67553837,.0001445,98.0566,127.7756,83.9697,276.1672,0,U,64694,999,5516,-.39529E-6,-.5E-6,0
