KAZSTSAT                
1 43783U 18099AB  26190.77980345  .00001133  00000+0  95747-4 0  9996
2 43783  97.4316 221.6883 0007728   1.8232 358.3019 14.99946574414698
SAUDISAT 5A             
1 43831U 18102A   26190.88646469  .00003796  00000+0  14023-3 0  9997
2 43831  97.3058 252.0313 0010849  60.3433 299.8886 15.28286070419148
SAUDISAT 5B             
1 43833U 18102C   26190.83611806  .00003598  00000+0  13207-3 0  9994
2 43833  97.3167 255.0928 0011610  61.9774 298.2639 15.28530434419255
GAOFEN-10R              
1 44622U 19066A   26190.89123567  .00000730  00000+0  96480-4 0  9999
2 44622  98.0512 144.6367 0007087  66.8056 293.3903 14.83050095365748
CARTOSAT-3              
1 44804U 19081A   26190.88019439  .00002562  00000+0  12436-3 0  9992
2 44804  97.4296 252.3809 0013475  77.7914 282.4829 15.19300067366915
GAOFEN-12 01            
1 44819U 19082A   26190.85670212  .00000236  00000+0  37403-4 0  9996
2 44819  97.8106 196.6382 0001252  52.2012 307.9314 14.80476937357445
CSG-1                   
1 44873U 19092A   26190.80241514  .00000242  00000+0  36977-4 0  9993
2 44873  97.8894  14.0779 0001502  90.6570 269.4815 14.82148516354823
NEMO-HD                 
1 46277U 20061F   26190.86574405  .00008332  00000+0  17820-3 0  9998
2 46277  97.1911 252.5946 0001133  80.9545 279.1832 15.45061722325485
SENTINEL-6A             
1 46984U 20086A   26190.10289723 -.00000071  00000+0 -41417-4 0  9997
2 46984  66.0415  89.5347 0007817 270.0066  90.0053 12.80930079263136
CAS500-1                
1 47932U 21022A   26190.83832470  .00004148  00000+0  19486-3 0  9992
2 47932  97.3875  85.6303 0004609 186.9569 173.1603 15.20145076294203
GAOFEN-12 02            
1 48079U 21026A   26190.87020119  .00000217  00000+0  35404-4 0  9994
2 48079  97.9930 188.9589 0005491 146.4857 213.6703 14.80313539285115
PLEIADES NEO 3          
1 48268U 21034A   26190.87652609  .00000022  00000+0  94220-5 0  9994
2 48268  97.8936 265.3166 0001321  93.2029 266.9334 14.81673152281016
PLEIADES NEO 4          
1 49070U 21073E   26190.84274874  .00001111  00000+0  14774-3 0  9994
2 49070  97.8934 265.2798 0001357  92.7337 267.4031 14.81673701264720
LANDSAT 9               
1 49260U 21088A   26189.75885797  .00000226  00000+0  60329-4 0  9995
2 49260  98.2272 259.6744 0001172  89.8666 270.2667 14.57112192254143
CSG-2                   
1 51444U 22008A   26190.83612433 -.00000051  00000+0  93116-7 0  9991
2 51444  97.8898  14.1061 0001523  84.9757 275.1630 14.82147479239941
GAOFEN-12 03            
1 52912U 22069A   26190.83642681  .00000410  00000+0  60828-4 0  9996
2 52912  97.8250  78.1328 0002486  78.5087 281.6405 14.80069598217967
SWOT                    
1 54754U 22173A   26190.78215196  .00000016  00000+0  12431-4 0  9998
2 54754  77.6105   4.8057 0000296  75.0538 285.0646 14.00171984182313
GAOFEN-12 04            
1 57654U 23123A   26190.85504618  .00000625  00000+0  90000-4 0  9998
2 57654  97.9106 108.5357 0003754  61.4086 298.7503 14.79769273155981
PARS 1                  
1 59065U 24039Q   26190.83945332  .00009004  00000+0  18482-3 0  9996
2 59065  97.4831 172.4814 0010453  44.2935 315.9148 15.46210499132149
RESURS-P 4              
1 59371U 24061A   26190.85978833  .00002054  00000+0  68378-4 0  9993
2 59371  97.2754 138.3661 0003223  97.7805 262.3803 15.32260625127236
LEGION 1                
1 59625U 24081A   26190.72367806  .00002195  00000+0  11505-3 0  9990
2 59625  97.5012 268.3414 0007747 292.5857  67.4556 15.16821177120953
LEGION 2                
1 59626U 24081B   26190.75398499  .00002582  00000+0  13474-3 0  9993
2 59626  97.5011 268.4683 0009935 254.8850 105.1284 15.16800248120962
ALOS-4 (DAICHI-4)       
1 60182U 24123A   26190.81553650  .00000978  00000+0  13786-3 0  9991
2 60182  97.9220 287.6667 0001615  97.9415 262.1980 14.79472587109224
LEGION 3                
1 60452U 24146A   26190.66828874  .00001987  00000+0  11640-3 0  9990
2 60452  45.0016 270.0128 0008682 305.2721  54.7345 15.15633421105431
LEGION 4                
1 60453U 24146B   26190.73408286  .00003094  00000+0  17076-3 0  9990
2 60453  45.0026   1.5280 0011446  77.6750 282.5409 15.16214770104291
SENTINEL-2C             
1 60989U 24157A   26190.20051958  .00000052  00000+0  36616-4 0  9991
2 60989  98.5685 264.6704 0000939  97.5512 262.5777 14.30814617 96134
IONOSFERA-M 1           
1 61735U 24199A   26190.76838257  .00000025  00000+0  30622-4 0  9994
2 61735  98.7145  63.6992 0002212  80.0942 280.0485 14.22758388130912
IONOSFERA-M 2           
1 61736U 24199B   26190.80262367  .00000029  00000+0  32467-4 0  9996
2 61736  98.7143  63.6435 0000343 100.6896 259.4321 14.22761760134048
PRSC-EO1                
1 62725U 25012A   26190.87238701  .00005221  00000+0  26187-3 0  9992
2 62725  97.4220 262.8880 0006482 165.5392 194.6028 15.17740083 81637
BIOMASS                 
1 63772U 25090A   26190.46817206  .00000697  00000+0  13140-3 0  9996
2 63772  98.0752  17.4555 0001279  92.9087 267.2264 14.67533736 63956
GOSAT-GW (IBUKI GW)     
1 64694U 25141A   26190.82639491 -.00000050  00000+0 -39529-6 0  9992
2 64694  98.0566 127.7756 0001445  83.9697 276.1672 14.67553837 55163
